NORAD_CAT_ID,OBJECT_NAME,OBJECT_TYPE,EPOCH,MEAN_MOTION,ECCENTRICITY,INCLINATION,RA_OF_ASC_NODE,ARG_OF_PERICENTER,MEAN_ANOMALY,BSTAR,MEAN_MOTION_DOT,MEAN_MOTION_DDOT,TLE_LINE0,TLE_LINE1,TLE_LINE2,SEMIMAJOR_AXIS,PERIOD,APOGEE,PERIGEE,DECAYED
54167.0,STARLINK-5243,PAYLOAD,2023-03-25 23:53:33,15.08814699,0.000171,53.2153,180.8098,55.7485,304.3669,0.00089658,0.00014,0.0,0 STARLINK-5243,1 54167U 22141L   23084.99552781  .00014000  00000-0  89658-3 0  9990,2 54167  53.2153 180.8098 0001710  55.7485 304.3669 15.08814699 22715,6917.958,95.439,541.006,538.64,0.0
54167.0,STARLINK-5243,PAYLOAD,2023-03-26 17:22:49,15.08833972,0.0001316,53.2152,177.5351,79.2853,280.8287,0.0017854,0.00028236,0.0,0 STARLINK-5243,1 54167U 22141L   23085.72417847  .00028236  00000-0  17854-2 0  9999,2 54167  53.2152 177.5351 0001316  79.2853 280.8287 15.08833972 22833,6917.899,95.438,540.674,538.853,0.0
54167.0,STARLINK-5243,PAYLOAD,2023-03-27 10:52:04,15.08845582,0.0001161,53.2146,174.2658,66.2302,293.8812,0.0020593,0.00032643,0.0,0 STARLINK-5243,1 54167U 22141L   23086.45282659  .00032643  00000-0  20593-2 0  9992,2 54167  53.2146 174.2658 0001161  66.2302 293.8812 15.08845582 22932,6917.863,95.437,540.531,538.925,0.0
54167.0,STARLINK-5243,PAYLOAD,2023-03-27 12:27:27,15.08849014,0.0001152,53.2146,173.968,69.1725,290.939,0.0021689,0.00034407,0.0,0 STARLINK-5243,1 54167U 22141L   23086.51906623  .00034407  00000-0  21689-2 0  9990,2 54167  53.2146 173.9680 0001152  69.1725 290.9390 15.08849014 22959,6917.853,95.437,540.515,538.921,0.0
54167.0,STARLINK-5243,PAYLOAD,2023-03-27 17:13:36,15.08860637,0.0001261,53.2148,173.0761,67.6102,292.5024,0.0020611,0.00032685,0.0,0 STARLINK-5243,1 54167U 22141L   23086.71778443  .00032685  00000-0  20611-2 0  9999,2 54167  53.2148 173.0761 0001261  67.6102 292.5024 15.08860637 22984,6917.817,95.436,540.555,538.81,0.0
54167.0,STARLINK-5243,PAYLOAD,2023-03-28 10:42:51,15.08845987,0.0001544,53.2159,169.8058,115.0067,245.1085,0.001203,0.00018913,0.0,0 STARLINK-5243,1 54167U 22141L   23087.44642756  .00018913  00000-0  12030-2 0  9991,2 54167  53.2159 169.8058 0001544 115.0067 245.1085 15.08845987 23084,6917.862,95.437,540.795,538.659,0.0
54167.0,STARLINK-5243,PAYLOAD,2023-03-28 15:29:00,15.08858657,0.0001365,53.2147,168.9104,112.4659,247.6478,0.0014564,0.00022978,0.0,0 STARLINK-5243,1 54167U 22141L   23087.64514500  .00022978  00000-0  14564-2 0  9998,2 54167  53.2147 168.9104 0001365 112.4659 247.6478 15.08858657 23128,6917.823,95.436,540.633,538.744,0.0
54167.0,STARLINK-5243,PAYLOAD,2023-03-28 21:50:33,15.08840728,0.0001203,53.216,167.722,107.581,252.5314,0.00054212,8.351e-05,0.0,0 STARLINK-5243,1 54167U 22141L   23087.91010776  .00008351  00000-0  54212-3 0  9998,2 54167  53.2160 167.7220 0001203 107.5810 252.5314 15.08840728 23151,6917.878,95.438,540.575,538.911,0.0
54167.0,STARLINK-5243,PAYLOAD,2023-03-29 12:09:01,15.08858269,0.000137,53.2156,165.0473,105.3752,254.7391,0.0016444,0.00025993,0.0,0 STARLINK-5243,1 54167U 22141L   23088.50626600  .00025993  00000-0  16444-2 0  9998,2 54167  53.2156 165.0473 0001370 105.3752 254.7391 15.08858269 23252,6917.825,95.436,540.637,538.742,0.0
54167.0,STARLINK-5243,PAYLOAD,2023-03-29 16:55:10,15.08874891,0.000137,53.2155,164.1554,108.5146,251.5995,0.0019506,0.00030922,0.0,0 STARLINK-5243,1 54167U 22141L   23088.70498153  .00030922  00000-0  19506-2 0  9990,2 54167  53.2155 164.1554 0001370 108.5146 251.5995 15.08874891 23279,6917.774,95.435,540.586,538.691,0.0
54167.0,STARLINK-5243,PAYLOAD,2023-03-29 21:41:19,15.08845056,6.51e-05,53.2153,163.2636,112.3236,247.7825,0.00054091,8.332e-05,0.0,0 STARLINK-5243,1 54167U 22141L   23088.90370278  .00008332  00000-0  54091-3 0  9998,2 54167  53.2153 163.2636 0000651 112.3236 247.7825 15.08845056 23317,6917.865,95.437,540.18,539.28,0.0
54167.0,STARLINK-5243,PAYLOAD,2023-03-30 10:24:25,15.08842495,0.0001168,53.2146,160.884,89.8394,270.2732,0.0016606,0.00026241,0.0,0 STARLINK-5243,1 54167U 22141L   23089.43362935  .00026241  00000-0  16606-2 0  9996,2 54167  53.2146 160.8840 0001168  89.8394 270.2732 15.08842495 23385,6917.873,95.437,540.546,538.93,0.0
54167.0,STARLINK-5243,PAYLOAD,2023-03-30 15:10:34,15.08848403,0.0001386,53.2151,159.9935,80.8115,279.3034,0.0016489,0.00026058,0.0,0 STARLINK-5243,1 54167U 22141L   23089.63234892  .00026058  00000-0  16489-2 0  9993,2 54167  53.2151 159.9935 0001386  80.8115 279.3034 15.08848403 23424,6917.855,95.437,540.679,538.761,0.0
54167.0,STARLINK-5243,PAYLOAD,2023-03-31 03:53:40,15.08848215,0.000126,53.2147,157.613,105.6555,254.4576,0.0016055,0.00025362,0.0,0 STARLINK-5243,1 54167U 22141L   23090.16227155  .00025362  00000-0  16055-2 0  9993,2 54167  53.2147 157.6130 0001260 105.6555 254.4576 15.08848215 23499,6917.855,95.437,540.592,538.849,0.0
54167.0,STARLINK-5243,PAYLOAD,2023-04-01 03:44:27,15.08828745,0.000108,53.2141,153.1524,135.2516,224.8563,0.00063966,9.904e-05,0.0,0 STARLINK-5243,1 54167U 22141L   23091.15587257  .00009904  00000-0  63966-3 0  9993,2 54167  53.2141 153.1524 0001080 135.2516 224.8563 15.08828745 23647,6917.915,95.438,540.527,539.033,0.0
54167.0,STARLINK-5243,PAYLOAD,2023-04-01 13:16:46,15.08839765,0.0001238,53.2141,151.3674,115.6111,244.5009,0.0019852,0.00031448,0.0,0 STARLINK-5243,1 54167U 22141L   23091.55331633  .00031448  00000-0  19852-2 0  9994,2 54167  53.2141 151.3674 0001238 115.6111 244.5009 15.08839765 23717,6917.881,95.438,540.603,538.89,0.0
54167.0,STARLINK-5243,PAYLOAD,2023-04-01 21:13:42,15.08842854,0.0001329,53.2144,149.882,96.473,263.6413,0.0016613,0.00026253,0.0,0 STARLINK-5243,1 54167U 22141L   23091.88452018  .00026253  00000-0  16613-2 0  9991,2 54167  53.2144 149.8820 0001329  96.4730 263.6413 15.08842854 23768,6917.872,95.437,540.656,538.817,0.0
54167.0,STARLINK-5243,PAYLOAD,2023-04-02 09:56:47,15.08849007,0.0001351,53.2137,147.5037,92.6056,267.509,0.0010204,0.00015993,0.0,0 STARLINK-5243,1 54167U 22141L   23092.41443934  .00015993  00000-0  10204-2 0  9997,2 54167  53.2137 147.5037 0001351  92.6056 267.5090 15.08849007 23838,6917.853,95.437,540.652,538.783,0.0
54167.0,STARLINK-5243,PAYLOAD,2023-04-02 21:04:29,15.08845718,0.0001351,53.2141,145.4212,87.3955,272.7192,0.00039451,5.997e-05,0.0,0 STARLINK-5243,1 54167U 22141L   23092.87811855  .00005997  00000-0  39451-3 0  9997,2 54167  53.2141 145.4212 0001351  87.3955 272.7192 15.08845718 23919,6917.863,95.437,540.663,538.793,0.0
54167.0,STARLINK-5243,PAYLOAD,2023-04-03 09:47:34,15.08841457,0.0001447,53.2151,143.0419,93.9996,266.1161,0.00024025,3.538e-05,0.0,0 STARLINK-5243,1 54167U 22141L   23093.40804033  .00003538  00000-0  24025-3 0  9997,2 54167  53.2151 143.0419 0001447  93.9996 266.1161 15.08841457 23983,6917.876,95.437,540.742,538.74,0.0
54167.0,STARLINK-5243,PAYLOAD,2023-04-03 14:33:43,15.08848592,0.0001433,53.2153,142.1479,101.5963,258.519,0.0002978,4.456e-05,0.0,0 STARLINK-5243,1 54167U 22141L   23093.60675625  .00004456  00000-0  29780-3 0  9995,2 54167  53.2153 142.1479 0001433 101.5963 258.5190 15.08848592 24026,6917.854,95.437,540.71,538.728,0.0
54167.0,STARLINK-5243,PAYLOAD,2023-04-04 09:38:21,15.08850762,0.0001434,53.2151,138.5792,94.9213,265.1943,0.00020502,2.977e-05,0.0,0 STARLINK-5243,1 54167U 22141L   23094.40163285  .00002977  00000-0  20502-3 0  9997,2 54167  53.2151 138.5792 0001434  94.9213 265.1943 15.08850762 24140,6917.847,95.437,540.705,538.72,0.0
54167.0,STARLINK-5243,PAYLOAD,2023-04-04 14:24:30,15.08855949,0.0001491,53.2153,137.685,105.7712,254.3444,0.00026845,3.989e-05,0.0,0 STARLINK-5243,1 54167U 22141L   23094.60034815  .00003989  00000-0  26845-3 0  9995,2 54167  53.2153 137.6850 0001491 105.7712 254.3444 15.08855949 24165,6917.832,95.437,540.728,538.665,0.0
54167.0,STARLINK-5243,PAYLOAD,2023-04-05 03:07:35,15.08836609,0.0001716,53.2156,135.3035,111.7072,248.4103,-6.0017e-05,-1.243e-05,0.0,0 STARLINK-5243,1 54167U 22141L   23095.13027601 -.00001243  00000-0 -60017-4 0  9992,2 54167  53.2156 135.3035 0001716 111.7072 248.4103 15.08836609 24241,6917.891,95.438,540.943,538.569,0.0
54167.0,STARLINK-5243,PAYLOAD,2023-04-05 09:29:08,15.08837551,0.000134,53.2156,134.1215,107.5462,252.5677,1.5591e-07,-2.85e-06,0.0,0 STARLINK-5243,1 54167U 22141L   23095.39523745 -.00000285  00000-0  15591-6 0  9993,2 54167  53.2156 134.1215 0001340 107.5462 252.5677 15.08837551 24291,6917.888,95.438,540.68,538.826,0.0
54167.0,STARLINK-5243,PAYLOAD,2023-04-05 14:15:17,15.08839844,0.0001322,53.2156,133.2278,106.0732,254.0406,3.8124e-05,3.19e-06,0.0,0 STARLINK-5243,1 54167U 22141L   23095.59395623  .00000319  00000-0  38124-4 0  9999,2 54167  53.2156 133.2278 0001322 106.0732 254.0406 15.08839844 24322,6917.881,95.438,540.66,538.831,0.0
54167.0,STARLINK-5243,PAYLOAD,2023-04-06 10:55:18,15.08843443,0.0001262,53.2151,129.362,87.0962,273.0175,0.00015366,2.159e-05,0.0,0 STARLINK-5243,1 54167U 22141L   23096.45507670  .00002159  00000-0  15366-3 0  9998,2 54167  53.2151 129.3620 0001262  87.0962 273.0175 15.08843443 24447,6917.87,95.437,540.608,538.862,0.0
54167.0,STARLINK-5243,PAYLOAD,2023-04-06 12:30:41,15.08844157,0.000129,53.2154,129.0639,92.5039,267.61,0.00020121,2.916e-05,0.0,0 STARLINK-5243,1 54167U 22141L   23096.52131666  .00002916  00000-0  20121-3 0  9990,2 54167  53.2154 129.0639 0001290  92.5039 267.6100 15.08844157 24466,6917.868,95.437,540.625,538.84,0.0
54167.0,STARLINK-5243,PAYLOAD,2023-04-07 02:49:10,15.08835509,0.0001209,53.2146,126.3875,86.6527,273.4603,8.6668e-05,1.092e-05,0.0,0 STARLINK-5243,1 54167U 22141L   23097.11748078  .00001092  00000-0  86668-4 0  9990,2 54167  53.2146 126.3875 0001209  86.6527 273.4603 15.08835509 24548,6917.894,95.438,540.595,538.923,0.0
54167.0,STARLINK-5243,PAYLOAD,2023-04-07 10:46:05,15.08842457,0.0001241,53.2151,124.8993,88.6397,271.4737,0.00015688,2.21e-05,0.0,0 STARLINK-5243,1 54167U 22141L   23097.44867810  .00002210  00000-0  15688-3 0  9998,2 54167  53.2151 124.8993 0001241  88.6397 271.4737 15.08842457 24604,6917.873,95.437,540.596,538.879,0.0
